NORAD_CAT_ID,OBJECT_NAME,OBJECT_TYPE,EPOCH,MEAN_MOTION,ECCENTRICITY,INCLINATION,RA_OF_ASC_NODE,ARG_OF_PERICENTER,MEAN_ANOMALY,BSTAR,MEAN_MOTION_DOT,MEAN_MOTION_DDOT,TLE_LINE0,TLE_LINE1,TLE_LINE2,SEMIMAJOR_AXIS,PERIOD,APOGEE,PERIGEE,DECAYED
51111.0,STARLINK-3173,PAYLOAD,2022-04-30 22:00:00,15.32490202,0.0001821,53.2164,134.9141,35.1924,124.6759,-0.017679,-0.00525049,0.0,0 STARLINK-3173,1 51111U 22005H   22120.91667824 -.00525049  00000-0 -17679-1 0  9996,2 51111  53.2164 134.9141 0001821  35.1924 124.6759 15.32490202  3624,6846.522,93.965,469.634,467.141,0.0
51111.0,STARLINK-3173,PAYLOAD,2022-05-01 14:00:01,15.3166327,0.0001635,53.2171,131.8067,48.678,190.2733,-0.022479,-0.00648174,0.0,0 STARLINK-3173,1 51111U 22005H   22121.58334491 -.00648174  00000-0 -22479-1 0  9990,2 51111  53.2171 131.8067 0001635  48.6780 190.2733 15.31663270 17393,6848.986,94.015,471.971,469.732,0.0
51111.0,STARLINK-3173,PAYLOAD,2022-05-01 22:00:01,15.31083907,0.0001956,53.2163,130.255,37.9777,239.8415,-0.016495,-0.00472052,0.0,0 STARLINK-3173,1 51111U 22005H   22121.91668981 -.00472052  00000-0 -16495-1 0  9992,2 51111  53.2163 130.2550 0001956  37.9777 239.8415 15.31083907  3639,6850.714,94.051,473.919,471.239,0.0
51111.0,STARLINK-3173,PAYLOAD,2022-05-02 14:00:01,15.30296054,0.0001458,53.2172,127.1545,46.679,306.8525,-0.023444,-0.00647713,0.0,0 STARLINK-3173,1 51111U 22005H   22122.58334491 -.00647713  00000-0 -23444-1 0  9992,2 51111  53.2172 127.1545 0001458  46.6790 306.8525 15.30296054  3676,6853.065,94.099,475.929,473.931,0.0
51111.0,STARLINK-3173,PAYLOAD,2022-05-02 22:00:01,15.29836838,0.0001588,53.2173,125.6043,40.2048,350.4911,-0.023579,-0.00642597,0.0,0 STARLINK-3173,1 51111U 22005H   22122.91668981 -.00642597  00000-0 -23579-1 0  9997,2 51111  53.2173 125.6043 0001588  40.2048 350.4911 15.29836838 17591,6854.437,94.128,477.39,475.213,0.0
51111.0,STARLINK-3173,PAYLOAD,2022-05-03 14:00:01,15.28830833,0.000165,53.2157,122.514,38.1619,65.0696,-0.019038,-0.00505688,0.0,0 STARLINK-3173,1 51111U 22005H   22123.58334491 -.00505688  00000-0 -19038-1 0  9991,2 51111  53.2157 122.5140 0001650  38.1619  65.0696 15.28830833  3623,6857.443,94.19,480.44,478.177,0.0
51111.0,STARLINK-3173,PAYLOAD,2022-05-03 22:00:00,15.2837735,0.0002047,53.2161,120.9674,30.2266,108.4609,-0.01951,-0.00510726,0.0,0 STARLINK-3173,1 51111U 22005H   22123.91667824 -.00510726  00000-0 -19510-1 0  9991,2 51111  53.2161 120.9674 0002047  30.2266 108.4609 15.28377350 17759,6858.8,94.218,482.069,479.261,0.0
51111.0,STARLINK-3173,PAYLOAD,2022-05-04 06:00:02,15.28014944,0.0002148,53.2173,119.4227,33.1199,140.4915,-0.024998,-0.00643966,0.0,0 STARLINK-3173,1 51111U 22005H   22124.25002315 -.00643966  00000-0 -24998-1 0  9996,2 51111  53.2173 119.4227 0002148  33.1199 140.4915 15.28014944 17807,6859.884,94.24,483.223,480.276,0.0
51111.0,STARLINK-3173,PAYLOAD,2022-05-04 14:00:01,15.27560614,0.000167,53.2171,117.8792,48.3803,159.5273,-0.025434,-0.00645928,0.0,0 STARLINK-3173,1 51111U 22005H   22124.58334491 -.00645928  00000-0 -25434-1 0  9991,2 51111  53.2171 117.8792 0001670  48.3803 159.5273 15.27560614  3669,6861.244000000002,94.268,484.255,481.963,0.0
51111.0,STARLINK-3173,PAYLOAD,2022-05-04 22:00:01,15.27104434,0.0001653,53.2173,116.3355,49.0434,192.7415,-0.02577,-0.00645429,0.0,0 STARLINK-3173,1 51111U 22005H   22124.91668981 -.00645429  00000-0 -25770-1 0  9991,2 51111  53.2173 116.3355 0001653  49.0434 192.7415 15.27104434  3660,6862.61,94.296,485.61,483.341,0.0
51111.0,STARLINK-3173,PAYLOAD,2022-05-05 14:00:01,15.26138414,0.0001545,53.2159,113.2577,43.7622,263.9658,-0.023154,-0.00568123,0.0,0 STARLINK-3173,1 51111U 22005H   22125.58334491 -.00568123  00000-0 -23154-1 0  9990,2 51111  53.2159 113.2577 0001545  43.7622 263.9658 15.26138414 18004,6865.505999999999,94.356,488.432,486.31,0.0
51111.0,STARLINK-3173,PAYLOAD,2022-05-05 22:00:00,15.2563869,0.0001730999999999,53.2162,111.7177,44.1546,295.7671,-0.020856,-0.00502713,0.0,0 STARLINK-3173,1 51111U 22005H   22125.91667824 -.00502713  00000-0 -20856-1 0  9995,2 51111  53.2162 111.7177 0001731  44.1546 295.7671 15.25638690 18057,6867.005,94.387,490.059,487.682,0.0
51111.0,STARLINK-3173,PAYLOAD,2022-05-06 06:00:00,15.252827599999998,0.0001776999999999,53.2174,110.1799,37.7451,333.749,-0.027322,-0.00647341,0.0,0 STARLINK-3173,1 51111U 22005H   22126.25001157 -.00647341  00000-0 -27322-1 0  9996,2 51111  53.2174 110.1799 0001777  37.7451 333.7490 15.25282760 18107,6868.073,94.409,491.159,488.718,0.0
51111.0,STARLINK-3173,PAYLOAD,2022-05-06 14:00:01,15.24826028,0.0001413,53.2173,108.6425,50.9446,351.6249,-0.027619,-0.00645518,0.0,0 STARLINK-3173,1 51111U 22005H   22126.58334491 -.00645518  00000-0 -27619-1 0  9995,2 51111  53.2173 108.6425 0001413  50.9446 351.6249 15.24826028  3668,6869.445,94.437,492.281,490.339,0.0
51111.0,STARLINK-3173,PAYLOAD,2022-05-07 06:00:02,15.23915489,0.0001936,53.2174,105.573,35.7917,67.347,-0.028457,-0.0064709999999999,0.0,0 STARLINK-3173,1 51111U 22005H   22127.25002315 -.00647100  00000-0 -28457-1 0  9997,2 51111  53.2174 105.5730 0001936  35.7917  67.3470 15.23915489 18266,6872.181,94.493,495.376,492.715,0.0
51111.0,STARLINK-3173,PAYLOAD,2022-05-07 14:00:01,15.234582,0.0001618,53.2172,104.0386,47.7267,84.7814,-0.028704,-0.00644038,0.0,0 STARLINK-3173,1 51111U 22005H   22127.58334491 -.00644038  00000-0 -28704-1 0  9998,2 51111  53.2172 104.0386 0001618  47.7267  84.7814 15.23458200  3669,6873.556,94.522,496.533,494.309,0.0
51111.0,STARLINK-3173,PAYLOAD,2022-05-07 22:00:00,15.2300297,0.0001698,53.2175,102.5051,48.1747,113.2177,-0.029103,-0.00644179,0.0,0 STARLINK-3173,1 51111U 22005H   22127.91667824 -.00644179  00000-0 -29103-1 0  9994,2 51111  53.2175 102.5051 0001698  48.1747 113.2177 15.23002970  3669,6874.926,94.55,497.958,495.62300000000016,0.0
51111.0,STARLINK-3173,PAYLOAD,2022-05-08 14:00:01,15.21965712,0.0001628,53.2162,99.4462,41.7306,175.8591,-0.022154,-0.00479897,0.0,0 STARLINK-3173,1 51111U 22005H   22128.58334491 -.00479897  00000-0 -22154-1 0  9991,2 51111  53.2162  99.4462 0001628  41.7306 175.8591 15.21965712 18466,6878.049,94.614,501.034,498.794,0.0
51111.0,STARLINK-3173,PAYLOAD,2022-05-08 20:00:01,15.21750066,0.0001698,53.2173,98.2963,46.2273,101.7736,-0.030292,-0.00645886,0.0,0 STARLINK-3173,1 51111U 22005H   22128.83334491 -.00645886  00000-0 -30292-1 0  9994,2 51111  53.2173  98.2963 0001698  46.2273 101.7736 15.21750066 18509,6878.699000000001,94.628,501.732,499.396,0.0
51111.0,STARLINK-3173,PAYLOAD,2022-05-08 22:00:00,15.21541417,0.0001821,53.2159,97.916,43.2803,201.5254,-0.023799,-0.00507223,0.0,0 STARLINK-3173,1 51111U 22005H   22128.91667824 -.00507223  00000-0 -23799-1 0  9998,2 51111  53.2159  97.9160 0001821  43.2803 201.5254 15.21541417  3621,6879.328,94.641,502.445,499.94,0.0
51111.0,STARLINK-3173,PAYLOAD,2022-05-09 14:00:01,15.20599652,0.0001839,53.2162,94.8613,47.1803,250.5566,-0.023356,-0.00485602,0.0,0 STARLINK-3173,1 51111U 22005H   22129.58335648 -.00485602  00000-0 -23356-1 0  9993,2 51111  53.2162  94.8613 0001839  47.1803 250.5566 15.20599652  3618,6882.168000000002,94.699,505.298,502.767,0.0
51111.0,STARLINK-3173,PAYLOAD,2022-05-09 22:00:00,15.20170377,0.0001745,53.2162,93.3342,49.7211,273.526,-0.024526,-0.00502383,0.0,0 STARLINK-3173,1 51111U 22005H   22129.91667824 -.00502383  00000-0 -24526-1 0  9990,2 51111  53.2162  93.3342 0001745  49.7211 273.5260 15.20170377 18664,6883.4630000000025,94.726,506.529,504.127,0.0
51111.0,STARLINK-3173,PAYLOAD,2022-05-10 06:00:00,15.19813125,0.0001751999999999,53.2175,91.8097,40.4892,307.7593,-0.032031,-0.00645197,0.0,0 STARLINK-3173,1 51111U 22005H   22130.25001157 -.00645197  00000-0 -32031-1 0  9991,2 51111  53.2175  91.8097 0001752  40.4892 307.7593 15.19813125 18717,6884.542,94.748,507.61300000000006,505.201,0.0
51111.0,STARLINK-3173,PAYLOAD,2022-05-10 14:00:01,15.19357688,0.0001402,53.2174,90.2844,53.6127,319.1401,-0.032511,-0.00646103,0.0,0 STARLINK-3173,1 51111U 22005H   22130.58334491 -.00646103  00000-0 -32511-1 0  9998,2 51111  53.2174  90.2844 0001402  53.6127 319.1401 15.19357688  3646,6885.918000000002,94.777,508.74800000000016,506.817,0.0
51111.0,STARLINK-3173,PAYLOAD,2022-05-10 18:00:00,15.19128282,0.0001626,53.2172,89.5221,52.0472,152.7527,-0.032563,-0.00643075,0.0,0 STARLINK-3173,1 51111U 22005H   22130.75001157 -.00643075  00000-0 -32563-1 0  9999,2 51111  53.2172  89.5221 0001626  52.0472 152.7527 15.19128282  3633,6886.611,94.791,509.596,507.356,0.0
51111.0,STARLINK-3173,PAYLOAD,2022-05-11 22:00:00,15.17533017,0.0001656,53.2176,84.1989,45.9375,59.3539,-0.034065,-0.00642375,0.0,0 STARLINK-3173,1 51111U 22005H   22131.91667824 -.00642375  00000-0 -34065-1 0  9998,2 51111  53.2176  84.1989 0001656  45.9375  59.3539 15.17533017 18977,6891.436,94.891,514.442,512.16,0.0
51111.0,STARLINK-3173,PAYLOAD,2022-05-12 14:00:01,15.16622221,0.0001548,53.2174,81.1629,54.6576,93.6167,-0.035037,-0.00650394,0.0,0 STARLINK-3173,1 51111U 22005H   22132.58334491 -.00650394  00000-0 -35037-1 0  9993,2 51111  53.2174  81.1629 0001548  54.6576  93.6167 15.16622221  1305,6894.195,94.948,517.127,514.993,0.0
51111.0,STARLINK-3173,PAYLOAD,2022-05-12 22:00:00,15.16165853,0.0001747,53.2177,79.6463,46.7678,122.1771,-0.03543,-0.00649236,0.0,0 STARLINK-3173,1 51111U 22005H   22132.91667824 -.00649236  00000-0 -35430-1 0  9999,2 51111  53.2177  79.6463 0001747  46.7678 122.1771 15.16165853  1304,6895.578,94.976,518.648,516.239,0.0
51111.0,STARLINK-3173,PAYLOAD,2022-05-13 06:00:00,15.15708462,0.0001662,53.2175,78.1325,52.965,136.1023,-0.035751,-0.00646758,0.0,0 STARLINK-3173,1 51111U 22005H   22133.25001157 -.00646758  00000-0 -35751-1 0  9990,2 51111  53.2175  78.1325 0001662  52.9650 136.1023 15.15708462 19175,6896.965999999999,95.005,519.977,517.684,0.0
